{"spkid": "50460348", "covariance": {"epoch": "2459529.5", "labels": ["e", "q", "tp", "node", "peri", "i"], "elements": [{"label": "e", "units": null, "title": "eccentricity", "value": ".1895522057466478", "name": "e", "sigma": 2.71168968621756e-08}, {"name": "q", "sigma": 3.187910499413e-08, "value": ".9299405282886229", "title": "perihelion distance", "units": "au", "label": "q"}, {"label": "tp", "value": "2459387.900862320352", "title": "time of perihelion passage", "units": "TDB", "sigma": 3.29881241742323e-05, "name": "tp"}, {"label": "node", "name": "om", "sigma": 1.01539719331338e-05, "value": "236.8847602484865", "title": "longitude of the ascending node", "units": "deg"}, {"label": "peri", "name": "w", "sigma": 2.75776200990537e-05, "title": "argument of perihelion", "value": "281.5622442736447", "units": "deg"}, {"label": "i", "name": "i", "sigma": 9.09118078945418e-06, "title": "inclination", "value": "9.36984431890065", "units": "deg"}], "data": [["7.353260954338691E-16", "-8.641194602310085E-16", "-8.416153551331871E-14", "1.602276276467563E-14", "-4.847803671953574E-14", "1.130702385774619E-14"], ["-8.641194602310085E-16", "1.016277335226762E-15", "1.259922873930334E-13", "-1.844016425624039E-14", "7.771072182191091E-14", "-1.348855668691683E-14"], ["-8.416153551331871E-14", "1.259922873930334E-13", "1.088216336534567E-9", "1.142752210997071E-11", "8.474270533392642E-10", "-3.066125498325614E-11"], ["1.602276276467563E-14", "-1.844016425624039E-14", "1.142752210997071E-11", "1.031031460188691E-10", "-9.045700972195245E-11", "4.231086011593234E-11"], ["-4.847803671953574E-14", "7.771072182191091E-14", "8.474270533392642E-10", "-9.045700972195245E-11", "7.605251303277285E-10", "-6.535691856350405E-11"], ["1.130702385774619E-14", "-1.348855668691683E-14", "-3.066125498325614E-11", "4.231086011593234E-11", "-6.535691856350405E-11", "8.264956814654081E-11"]]}, "elements": [{"label": "e", "name": "e", "sigma": "2.7291E-8", "units": null, "title": "eccentricity", "value": ".1893645873270416"}, {"label": "a", "units": "au", "title": "semi-major axis", "value": "1.14719631423363", "name": "a", "sigma": "8.9501E-10"}, {"label": "q", "title": "perihelion distance", "value": ".9299579576056757", "units": "au", "name": "q", "sigma": "3.183E-8"}, {"label": "i", "units": "deg", "value": "9.372241871491543", "title": "inclination; angle with respect to x-y ecliptic plane", "sigma": "9.0879E-6", "name": "i"}, {"units": "deg", "title": "longitude of the ascending node", "value": "236.789683253694", "name": "om", "sigma": "1.0209E-5", "label": "node"}, {"sigma": "2.7542E-5", "name": "w", "value": "281.5573626278152", "title": "argument of perihelion", "units": "deg", "label": "peri"}, {"label": "M", "name": "ma", "sigma": "2.833E-5", "units": "deg", "value": "13.66239681782454", "title": "mean anomaly"}, {"sigma": "3.5305E-5", "name": "tp", "units": "TDB", "title": "time of perihelion passage", "value": "2461183.467459288605", "label": "tp"}, {"value": "448.8022663858178", "title": "sidereal orbital period", "units": "d", "name": "per", "sigma": "5.2521E-7", "label": "period"}, {"name": "n", "sigma": "9.387E-10", "units": "deg/d", "value": ".8021349867483112", "title": "mean motion", "label": "n"}, {"value": "1.364434670861584", "title": "aphelion distance", "units": "au", "name": "ad", "sigma": "1.0645E-9", "label": "Q"}], "epoch": "2461200.5"}